{
  "links" : {
    "next" : "https://api.nasa.gov/neo/rest/v1/feed?start_date=2014-07-23&end_date=2014-07-23&detailed=true&api_key=t0TVs3DtDT2H8Oy2Zy8m2eVrNsAVKAexjcZXUckd",
    "prev" : "https://api.nasa.gov/neo/rest/v1/feed?start_date=2014-07-21&end_date=2014-07-21&detailed=true&api_key=t0TVs3DtDT2H8Oy2Zy8m2eVrNsAVKAexjcZXUckd",
    "self" : "https://api.nasa.gov/neo/rest/v1/feed?start_date=2014-07-22&end_date=2014-07-22&detailed=true&api_key=t0TVs3DtDT2H8Oy2Zy8m2eVrNsAVKAexjcZXUckd"
  },
  "element_count" : 6,
  "near_earth_objects" : {
    "2014-07-22" : [ {
      "links" : {
        "self" : "https://api.nasa.gov/neo/rest/v1/neo/2004581?api_key=t0TVs3DtDT2H8Oy2Zy8m2eVrNsAVKAexjcZXUckd"
      },
      "neo_reference_id" : "2004581",
      "name" : "4581 Asclepius (1989 FC)",
      "nasa_jpl_url" : "http://ssd.jpl.nasa.gov/sbdb.cgi?sstr=2004581",
      "absolute_magnitude_h" : 20.7,
      "estimated_diameter" : {
        "kilometers" : {
          "estimated_diameter_min" : 0.1925550782,
          "estimated_diameter_max" : 0.4305662442
        },
        "meters" : {
          "estimated_diameter_min" : 192.5550781879,
          "estimated_diameter_max" : 430.566244241
        },
        "miles" : {
          "estimated_diameter_min" : 0.1196481415,
          "estimated_diameter_max" : 0.2675413778
        },
        "feet" : {
          "estimated_diameter_min" : 631.7424027221,
          "estimated_diameter_max" : 1412.6189567557
        }
      },
      "is_potentially_hazardous_asteroid" : true,
      "close_approach_data" : [ {
        "close_approach_date" : "2014-07-22",
        "epoch_date_close_approach" : 1406012400000,
        "relative_velocity" : {
          "kilometers_per_second" : "7.3149640896",
          "kilometers_per_hour" : "26333.8707224598",
          "miles_per_hour" : "16362.843171964"
        },
        "miss_distance" : {
          "astronomical" : "0.2859476598",
          "lunar" : "111.2336349487",
          "kilometers" : "42777160",
          "miles" : "26580494"
        },
        "orbiting_body" : "Earth"
      } ],
      "orbital_data" : {
        "orbit_id" : "65",
        "orbit_determination_date" : "2017-06-17 06:18:21",
        "orbit_uncertainty" : "0",
        "minimum_orbit_intersection" : ".00343534",
        "jupiter_tisserand_invariant" : "5.914",
        "epoch_osculation" : "2457120.5",
        "eccentricity" : ".3570084822738889",
        "semi_major_axis" : "1.022436411772923",
        "inclination" : "4.919344709365778",
        "ascending_node_longitude" : "180.2861201760351",
        "orbital_period" : "377.618174252891",
        "perihelion_distance" : ".6574179401843111",
        "perihelion_argument" : "255.2945548891094",
        "aphelion_distance" : "1.387454883361536",
        "perihelion_time" : "2456979.028911656633",
        "mean_anomaly" : "134.8706054849589",
        "mean_motion" : ".9533439451431378",
        "equinox" : "J2000"
      }
    }, {
      "links" : {
        "self" : "https://api.nasa.gov/neo/rest/v1/neo/2275792?api_key=t0TVs3DtDT2H8Oy2Zy8m2eVrNsAVKAexjcZXUckd"
      },
      "neo_reference_id" : "2275792",
      "name" : "275792 (2001 QH142)",
      "nasa_jpl_url" : "http://ssd.jpl.nasa.gov/sbdb.cgi?sstr=2275792",
      "absolute_magnitude_h" : 18.4,
      "estimated_diameter" : {
        "kilometers" : {
          "estimated_diameter_min" : 0.5553349116,
          "estimated_diameter_max" : 1.2417666126
        },
        "meters" : {
          "estimated_diameter_min" : 555.334911581,
          "estimated_diameter_max" : 1241.766612574
        },
        "miles" : {
          "estimated_diameter_min" : 0.3450690093,
          "estimated_diameter_max" : 0.7715977618
        },
        "feet" : {
          "estimated_diameter_min" : 1821.9649913114,
          "estimated_diameter_max" : 4074.0375731972
        }
      },
      "is_potentially_hazardous_asteroid" : false,
      "close_approach_data" : [ {
        "close_approach_date" : "2014-07-22",
        "epoch_date_close_approach" : 1406012400000,
        "relative_velocity" : {
          "kilometers_per_second" : "15.1661184986",
          "kilometers_per_hour" : "54598.0265949805",
          "miles_per_hour" : "33925.0904695311"
        },
        "miss_distance" : {
          "astronomical" : "0.4671547791",
          "lunar" : "181.7232055664",
          "kilometers" : "69885360",
          "miles" : "43424748"
        },
        "orbiting_body" : "Earth"
      } ],
      "orbital_data" : {
        "orbit_id" : "52",
        "orbit_determination_date" : "2017-04-06 09:24:31",
        "orbit_uncertainty" : "0",
        "minimum_orbit_intersection" : ".347427",
        "jupiter_tisserand_invariant" : "4.316",
        "epoch_osculation" : "2458000.5",
        "eccentricity" : ".2218159491854757",
        "semi_major_axis" : "1.527348949235404",
        "inclination" : "30.59670870257239",
        "ascending_node_longitude" : "318.3402817409016",
        "orbital_period" : "689.4548524746638",
        "perihelion_distance" : "1.188558592323314",
        "perihelion_argument" : "253.446214599743",
        "aphelion_distance" : "1.866139306147494",
        "perihelion_time" : "2458124.604256735169",
        "mean_anomaly" : "295.1987555612969",
        "mean_motion" : ".5221516662154891",
        "equinox" : "J2000"
      }
    }, {
      "links" : {
        "self" : "https://api.nasa.gov/neo/rest/v1/neo/2419922?api_key=t0TVs3DtDT2H8Oy2Zy8m2eVrNsAVKAexjcZXUckd"
      },
      "neo_reference_id" : "2419922",
      "name" : "419922 (2011 BJ24)",
      "nasa_jpl_url" : "http://ssd.jpl.nasa.gov/sbdb.cgi?sstr=2419922",
      "absolute_magnitude_h" : 17.7,
      "estimated_diameter" : {
        "kilometers" : {
          "estimated_diameter_min" : 0.7665755735,
          "estimated_diameter_max" : 1.7141150923
        },
        "meters" : {
          "estimated_diameter_min" : 766.5755735311,
          "estimated_diameter_max" : 1714.1150923063
        },
        "miles" : {
          "estimated_diameter_min" : 0.4763278307,
          "estimated_diameter_max" : 1.065101409
        },
        "feet" : {
          "estimated_diameter_min" : 2515.0118046636,
          "estimated_diameter_max" : 5623.7373594423
        }
      },
      "is_potentially_hazardous_asteroid" : false,
      "close_approach_data" : [ {
        "close_approach_date" : "2014-07-22",
        "epoch_date_close_approach" : 1406012400000,
        "relative_velocity" : {
          "kilometers_per_second" : "27.3716427765",
          "kilometers_per_hour" : "98537.9139954216",
          "miles_per_hour" : "61227.6277267663"
        },
        "miss_distance" : {
          "astronomical" : "0.4957276234",
          "lunar" : "192.8380432129",
          "kilometers" : "74159800",
          "miles" : "46080764"
        },
        "orbiting_body" : "Earth"
      } ],
      "orbital_data" : {
        "orbit_id" : "54",
        "orbit_determination_date" : "2017-04-06 09:21:10",
        "orbit_uncertainty" : "0",
        "minimum_orbit_intersection" : ".0896879",
        "jupiter_tisserand_invariant" : "3.197",
        "epoch_osculation" : "2458000.5",
        "eccentricity" : ".6410854979156205",
        "semi_major_axis" : "2.404451800055781",
        "inclination" : "8.083488825217563",
        "ascending_node_longitude" : "191.0768563374232",
        "orbital_period" : "1361.828880961936",
        "perihelion_distance" : ".8629926206029104",
        "perihelion_argument" : "188.851151032249",
        "aphelion_distance" : "3.945910979508651",
        "perihelion_time" : "2458265.374245994750",
        "mean_anomaly" : "289.9803889525713",
        "mean_motion" : ".2643503930873547",
        "equinox" : "J2000"
      }
    } ]
  }
}